BEIDOU-2 G8             
1 44231U 19027A   26164.29148980 -.00000236  00000+0  00000+0 0  9993
2 44231   1.6467  74.5020 0010279 282.5550 154.0328  1.00272151 26048
COSMOS 2534 [GLONASS-M] 
1 44299U 19030A   26164.33748843  .00000115  00000+0  00000+0 0  9995
2 44299  64.3684 192.7461 0013351 275.2342 150.5180  2.13102166 54842
BEIDOU-3 IGSO-2         
1 44337U 19035A   26162.98574688 -.00000041  00000+0  00000+0 0  9995
2 44337  55.2458 158.9084 0039925 216.2500 359.8397  1.00267954 25613
NAVSTAR 78 (USA 293)    
1 44506U 19056A   26163.66035003 -.00000070  00000+0  00000+0 0  9997
2 44506  55.6395 331.3227 0061867 197.5828 161.1492  2.00569410 49973
BEIDOU-3 M24            
1 44542U 19061A   26162.33598668  .00000129  00000+0  00000+0 0  9991
2 44542  54.3962 182.9254 0008267 358.9131   1.1499  1.86229258 45684
BEIDOU-3 M23            
1 44543U 19061B   26164.21236242  .00000117  00000+0  00000+0 0  9995
2 44543  54.3947 182.8303 0005580 337.9862 111.7077  1.86227312 45729
EUTELSAT 5 WEST B       
1 44624U 19067A   26164.26187176 -.00000030  00000+0  00000+0 0  9992
2 44624   0.0628 357.6230 0002913  83.7618 269.4877  1.00271927 24392
BEIDOU-3 IGSO-3         
1 44709U 19073A   26136.81046384 -.00000217  00000+0  00000+0 0  9995
2 44709  54.8566 281.2355 0042953 189.4588 170.3676  1.00246251 24144
BEIDOU-3 M22            
1 44793U 19078A   26163.78655904 -.00000068  00000+0  00000+0 0  9997
2 44793  53.9403 299.9835 0006462  50.1486 309.8916  1.86227395 44568
BEIDOU-3 M21            
1 44794U 19078B   26163.38953000 -.00000068  00000+0  00000+0 0  9992
2 44794  53.9139 299.9585 0004324  48.1956 311.8252  1.86227878 44563
COSMOS 2544 [GLONASS-M] 
1 44850U 19088A   26160.99045334 -.00000023  00000+0  00000+0 0  9993
2 44850  65.5614  73.9710 0013431 259.4785 100.3880  2.13102164 50565
BEIDOU-3 M19            
1 44864U 19090A   26163.79821794 -.00000056  00000+0  00000+0 0  9990
2 44864  56.5546  62.9362 0017894 297.9267 173.3886  1.86231512 44157
BEIDOU-3 M20            
1 44865U 19090B   26164.31062743 -.00000055  00000+0  00000+0 0  9990
2 44865  56.5565  62.9542 0015745 311.9209 232.5278  1.86231453 44141
BEIDOU-3 G2             
1 45344U 20017A   26164.06485377 -.00000130  00000+0  00000+0 0  9992
2 45344   2.8546  47.2727 0002189  32.7659 284.7664  1.00272615 23217
COSMOS 2545 [GLONASS-M] 
1 45358U 20018A   26162.59325469 -.00000045  00000+0  00000+0 0  9994
2 45358  64.3587 312.6159 0008155 231.1724 128.7459  2.13102630 48541
BEIDOU-3 G3             
1 45807U 20040A   26164.28472978 -.00000343  00000+0  00000+0 0  9995
2 45807   2.4362  67.4406 0002503 336.7928  70.4276  1.00268740 22039
NAVSTAR 79 (USA 304)    
1 45854U 20041A   26162.56161249 -.00000063  00000+0  00000+0 0  9992
2 45854  56.6657  29.1622 0063604 204.6361  19.3768  2.00558626 43922
GALAXY 30 (G-30)        
1 46114U 20056C   26164.26332130  .00000000  00000+0  00000+0 0  9996
2 46114   0.0263   4.2630 0002076  85.2436 141.8652  1.00270054 21253
COSMOS 2547 [GLONASS-K] 
1 46805U 20075A   26163.72129992  .00000119  00000+0  00000+0 0  9995
2 46805  64.5993 192.6246 0009245 239.6069 120.3788  2.13100258 43813
NAVSTAR 80 (USA 309)    
1 46826U 20078A   26164.31236422  .00000089  00000+0  00000+0 0  9990
2 46826  53.9802 210.9360 0073434 207.1619 177.1494  2.00564726 41430
NAVSTAR 81 (USA 319)    
1 48859U 21054A   26163.49644450 -.00000071  00000+0  00000+0 0  9997
2 48859  55.1770 332.6484 0025297 228.5782 112.8004  2.00569085 36651
QZS-1R (MICHIBIKI-1R)   
1 49336U 21096A   26163.64613531 -.00000260  00000+0  00000+0 0  9997
2 49336  37.4525  79.6520 0754486 271.6998 276.5137  1.00256900 16964
GSAT0223 (GALILEO 27)   
1 49809U 21116A   26162.13215269 -.00000065  00000+0  00000+0 0  9997
2 49809  57.1623 341.8389 0001404 187.4451 176.2704  1.70475860 28084
GSAT0224 (GALILEO 28)   
1 49810U 21116B   26162.53111727 -.00000066  00000+0  00000+0 0  9998
2 49810  57.1633 341.8270 0000988 155.4898 205.7028  1.70475859 28111
COSMOS 2557 [GLONASS-K] 
1 52984U 22075A   26163.88559135 -.00000051  00000+0  00000+0 0  9991
2 52984  64.3011 314.6375 0010222 275.3123  84.5589  2.13102288 30621
COSMOS 2559 [GLONASS-K] 
1 54031U 22130A   26161.35892150 -.00000039  00000+0  00000+0 0  9991
2 54031  64.2757 314.8093 0012427 178.3735 181.6269  2.13101643 28547
COSMOS 2564 [GLONASS-M] 
1 54377U 22161A   26164.01779421  .00000118  00000+0  00000+0 0  9996
2 54377  64.7413 192.8502 0012141 224.5907 135.3886  2.13101986 27541
NAVSTAR 82 (USA 343)    
1 55268U 23009A   26163.12704838  .00000093  00000+0  00000+0 0  9991
2 55268  55.1221 148.7180 0006256 318.0841 154.7932  2.00571739 25144
BEIDOU-3 G4             
1 56564U 23066A   26164.29062314 -.00000268  00000+0  00000+0 0  9994
2 56564   0.4916 330.4029 0004290 181.8988 353.9188  1.00275055 11359
NVS-01 (IRNSS-1J)       
1 56759U 23076A   26164.28854314 -.00000321  00000+0  00000+0 0  9999
2 56759   2.1758 244.5341 0003174  37.0395 213.4371  1.00266550 11077
COSMOS 2569 [GLONASS-K2]
1 57517U 23114A   26164.03009862 -.00000032  00000+0  00000+0 0  9997
2 57517  65.2998  72.7606 0010818 296.8248  63.0846  2.13103647 22177
